[{"OBJECT_NAME":"ONEWEB-0505","OBJECT_ID":"2022-138L","EPOCH":"2026-01-28T20:23:30.442560","MEAN_MOTION":13.19726654,"ECCENTRICITY":0.00013603,"INCLINATION":87.9253,"RA_OF_ASC_NODE":332.6881,"ARG_OF_PERICENTER":65.2078,"MEAN_ANOMALY":294.9196,"EPHEMERIS_TYPE":0,"CLASSIFICATION_TYPE":"U","NORAD_CAT_ID":54123,"ELEMENT_SET_NO":999,"REV_AT_EPOCH":15843,"BSTAR":0.0001702705,"MEAN_MOTION_DOT":8.1e-7,"MEAN_MOTION_DDOT":0},{"OBJECT_NAME":"ONEWEB-0506","OBJECT_ID":"2022-138M","EPOCH":"2026-01-28T21:36:16.989696","MEAN_MOTION":13.19727396,"ECCENTRICITY":0.00016182,"INCLINATION":87.9254,"RA_OF_ASC_NODE":332.6755,"ARG_OF_PERICENTER":75.8701,"MEAN_ANOMALY":284.2612,"EPHEMERIS_TYPE":0,"CLASSIFICATION_TYPE":"U","NORAD_CAT_ID":54124,"ELEMENT_SET_NO":999,"REV_AT_EPOCH":15843,"BSTAR":3.3253119e-5,"MEAN_MOTION_DOT":2.6e-7,"MEAN_MOTION_DDOT":0},{"OBJECT_NAME":"ONEWEB-0507","OBJECT_ID":"2022-138N","EPOCH":"2026-01-28T20:16:39.436032","MEAN_MOTION":13.19728486,"ECCENTRICITY":0.00015177,"INCLINATION":87.9236,"RA_OF_ASC_NODE":332.7137,"ARG_OF_PERICENTER":78.8113,"MEAN_ANOMALY":281.319,"EPHEMERIS_TYPE":0,"CLASSIFICATION_TYPE":"U","NORAD_CAT_ID":54125,"ELEMENT_SET_NO":999,"REV_AT_EPOCH":15847,"BSTAR":0.00011799764,"MEAN_MOTION_DOT":6.0e-7,"MEAN_MOTION_DDOT":0},{"OBJECT_NAME":"ONEWEB-0508","OBJECT_ID":"2022-138P","EPOCH":"2026-01-28T20:12:07.256160","MEAN_MOTION":13.19726772,"ECCENTRICITY":0.00013429,"INCLINATION":87.9239,"RA_OF_ASC_NODE":332.712,"ARG_OF_PERICENTER":80.3857,"MEAN_ANOMALY":279.7427,"EPHEMERIS_TYPE":0,"CLASSIFICATION_TYPE":"U","NORAD_CAT_ID":54126,"ELEMENT_SET_NO":999,"REV_AT_EPOCH":15845,"BSTAR":-0.00011667996,"MEAN_MOTION_DOT":-3.4e-7,"MEAN_MOTION_DDOT":0},{"OBJECT_NAME":"ONEWEB-0509","OBJECT_ID":"2022-138Q","EPOCH":"2026-01-28T21:24:53.462016","MEAN_MOTION":13.19725812,"ECCENTRICITY":0.00016224,"INCLINATION":87.9256,"RA_OF_ASC_NODE":332.6768,"ARG_OF_PERICENTER":76.9469,"MEAN_ANOMALY":283.1845,"EPHEMERIS_TYPE":0,"CLASSIFICATION_TYPE":"U","NORAD_CAT_ID":54127,"ELEMENT_SET_NO":999,"REV_AT_EPOCH":15843,"BSTAR":-0.00072914374,"MEAN_MOTION_DOT":-2.79e-6,"MEAN_MOTION_DDOT":0},{"OBJECT_NAME":"ONEWEB-0510","OBJECT_ID":"2022-138R","EPOCH":"2026-01-28T19:33:14.331744","MEAN_MOTION":13.20771475,"ECCENTRICITY":0.00021257,"INCLINATION":87.9226,"RA_OF_ASC_NODE":302.2464,"ARG_OF_PERICENTER":83.9742,"MEAN_ANOMALY":276.1634,"EPHEMERIS_TYPE":0,"CLASSIFICATION_TYPE":"U","NORAD_CAT_ID":54128,"ELEMENT_SET_NO":999,"REV_AT_EPOCH":16088,"BSTAR":3.1464489e-5,"MEAN_MOTION_DOT":2.6e-7,"MEAN_MOTION_DDOT":0},{"OBJECT_NAME":"ONEWEB-0511","OBJECT_ID":"2022-138S","EPOCH":"2026-01-28T19:31:10.965504","MEAN_MOTION":13.19727412,"ECCENTRICITY":0.00019194,"INCLINATION":87.9256,"RA_OF_ASC_NODE":332.6963,"ARG_OF_PERICENTER":71.7481,"MEAN_ANOMALY":288.3861,"EPHEMERIS_TYPE":0,"CLASSIFICATION_TYPE":"U","NORAD_CAT_ID":54129,"ELEMENT_SET_NO":999,"REV_AT_EPOCH":15845,"BSTAR":-2.8595601e-5,"MEAN_MOTION_DOT":1.0e-8,"MEAN_MOTION_DDOT":0},{"OBJECT_NAME":"ONEWEB-0512","OBJECT_ID":"2022-138T","EPOCH":"2026-01-28T19:19:49.247904","MEAN_MOTION":13.19726532,"ECCENTRICITY":0.00016208,"INCLINATION":87.9247,"RA_OF_ASC_NODE":332.7163,"ARG_OF_PERICENTER":68.7984,"MEAN_ANOMALY":291.3322,"EPHEMERIS_TYPE":0,"CLASSIFICATION_TYPE":"U","NORAD_CAT_ID":54130,"ELEMENT_SET_NO":999,"REV_AT_EPOCH":15842,"BSTAR":0.00025223564,"MEAN_MOTION_DOT":1.14e-6,"MEAN_MOTION_DDOT":0},{"OBJECT_NAME":"ONEWEB-0513","OBJECT_ID":"2022-138U","EPOCH":"2026-01-28T20:49:46.049376","MEAN_MOTION":13.20259204,"ECCENTRICITY":0.00016346,"INCLINATION":87.9256,"RA_OF_ASC_NODE":332.6619,"ARG_OF_PERICENTER":49.2018,"MEAN_ANOMALY":310.9257,"EPHEMERIS_TYPE":0,"CLASSIFICATION_TYPE":"U","NORAD_CAT_ID":54131,"ELEMENT_SET_NO":999,"REV_AT_EPOCH":15833,"BSTAR":0.00014203393,"MEAN_MOTION_DOT":7.0e-7,"MEAN_MOTION_DDOT":0},{"OBJECT_NAME":"ONEWEB-0514","OBJECT_ID":"2022-138V","EPOCH":"2026-01-28T19:42:32.858496","MEAN_MOTION":13.19727108,"ECCENTRICITY":0.00018231,"INCLINATION":87.9241,"RA_OF_ASC_NODE":332.7021,"ARG_OF_PERICENTER":83.4028,"MEAN_ANOMALY":276.7313,"EPHEMERIS_TYPE":0,"CLASSIFICATION_TYPE":"U","NORAD_CAT_ID":54132,"ELEMENT_SET_NO":999,"REV_AT_EPOCH":15844,"BSTAR":-0.00015246759,"MEAN_MOTION_DOT":-4.8e-7,"MEAN_MOTION_DDOT":0},{"OBJECT_NAME":"ONEWEB-0515","OBJECT_ID":"2022-138W","EPOCH":"2026-01-28T17:25:56.638272","MEAN_MOTION":13.20774472,"ECCENTRICITY":0.00020905,"INCLINATION":87.9224,"RA_OF_ASC_NODE":302.2533,"ARG_OF_PERICENTER":104.183,"MEAN_ANOMALY":255.9535,"EPHEMERIS_TYPE":0,"CLASSIFICATION_TYPE":"U","NORAD_CAT_ID":54133,"ELEMENT_SET_NO":999,"REV_AT_EPOCH":16089,"BSTAR":7.5304328e-5,"MEAN_MOTION_DOT":4.4e-7,"MEAN_MOTION_DDOT":0},{"OBJECT_NAME":"ONEWEB-0516","OBJECT_ID":"2022-138X","EPOCH":"2026-01-28T20:55:20.945280","MEAN_MOTION":13.1972697,"ECCENTRICITY":0.00016701,"INCLINATION":87.9242,"RA_OF_ASC_NODE":332.7055,"ARG_OF_PERICENTER":81.0198,"MEAN_ANOMALY":279.1123,"EPHEMERIS_TYPE":0,"CLASSIFICATION_TYPE":"U","NORAD_CAT_ID":54134,"ELEMENT_SET_NO":999,"REV_AT_EPOCH":15845,"BSTAR":9.8761448e-5,"MEAN_MOTION_DOT":5.2e-7,"MEAN_MOTION_DDOT":0},{"OBJECT_NAME":"ONEWEB-0517","OBJECT_ID":"2022-138Y","EPOCH":"2026-01-28T20:25:45.629184","MEAN_MOTION":13.1972795,"ECCENTRICITY":0.00019705,"INCLINATION":87.9247,"RA_OF_ASC_NODE":332.696,"ARG_OF_PERICENTER":72.5935,"MEAN_ANOMALY":287.5413,"EPHEMERIS_TYPE":0,"CLASSIFICATION_TYPE":"U","NORAD_CAT_ID":54135,"ELEMENT_SET_NO":999,"REV_AT_EPOCH":15845,"BSTAR":0.00025081722,"MEAN_MOTION_DOT":1.13e-6,"MEAN_MOTION_DDOT":0},{"OBJECT_NAME":"ONEWEB-0518","OBJECT_ID":"2022-138Z","EPOCH":"2026-01-28T20:53:02.948064","MEAN_MOTION":13.19725953,"ECCENTRICITY":0.00016285,"INCLINATION":87.9238,"RA_OF_ASC_NODE":332.7077,"ARG_OF_PERICENTER":76.9299,"MEAN_ANOMALY":283.2016,"EPHEMERIS_TYPE":0,"CLASSIFICATION_TYPE":"U","NORAD_CAT_ID":54136,"ELEMENT_SET_NO":999,"REV_AT_EPOCH":15845,"BSTAR":-0.0001391321,"MEAN_MOTION_DOT":-4.3e-7,"MEAN_MOTION_DDOT":0},{"OBJECT_NAME":"ONEWEB-0519","OBJECT_ID":"2022-138AA","EPOCH":"2026-01-28T21:29:28.329792","MEAN_MOTION":13.19726252,"ECCENTRICITY":0.000189,"INCLINATION":87.925,"RA_OF_ASC_NODE":332.6779,"ARG_OF_PERICENTER":73.6247,"MEAN_ANOMALY":286.5094,"EPHEMERIS_TYPE":0,"CLASSIFICATION_TYPE":"U","NORAD_CAT_ID":54137,"ELEMENT_SET_NO":999,"REV_AT_EPOCH":15846,"BSTAR":6.1455067e-5,"MEAN_MOTION_DOT":3.8e-7,"MEAN_MOTION_DDOT":0},{"OBJECT_NAME":"ONEWEB-0520","OBJECT_ID":"2022-138AB","EPOCH":"2026-01-28T20:30:19.816128","MEAN_MOTION":13.19726967,"ECCENTRICITY":0.00014727,"INCLINATION":87.9253,"RA_OF_ASC_NODE":332.6922,"ARG_OF_PERICENTER":75.3898,"MEAN_ANOMALY":284.7398,"EPHEMERIS_TYPE":0,"CLASSIFICATION_TYPE":"U","NORAD_CAT_ID":54138,"ELEMENT_SET_NO":999,"REV_AT_EPOCH":15844,"BSTAR":8.2340185e-5,"MEAN_MOTION_DOT":4.6e-7,"MEAN_MOTION_DDOT":0},{"OBJECT_NAME":"ONEWEB-0521","OBJECT_ID":"2022-138AC","EPOCH":"2026-01-28T21:18:05.661792","MEAN_MOTION":13.19726939,"ECCENTRICITY":0.00019761,"INCLINATION":87.9255,"RA_OF_ASC_NODE":332.669,"ARG_OF_PERICENTER":76.7306,"MEAN_ANOMALY":283.4047,"EPHEMERIS_TYPE":0,"CLASSIFICATION_TYPE":"U","NORAD_CAT_ID":54139,"ELEMENT_SET_NO":999,"REV_AT_EPOCH":15839,"BSTAR":-2.489937e-6,"MEAN_MOTION_DOT":1.2e-7,"MEAN_MOTION_DDOT":0}]
