ONEWEB-0505             
1 54123U 22138L   26028.84965790  .00000081  00000+0  17027-3 0  9995
2 54123  87.9253 332.6881 0001360  65.2078 294.9196 13.19726654158435
ONEWEB-0506             
1 54124U 22138M   26028.90019664  .00000026  00000+0  33253-4 0  9992
2 54124  87.9254 332.6755 0001618  75.8701 284.2612 13.19727396158432
ONEWEB-0507             
1 54125U 22138N   26028.84490088  .00000060  00000+0  11800-3 0  9990
2 54125  87.9236 332.7137 0001517  78.8113 281.3190 13.19728486158470
ONEWEB-0508             
1 54126U 22138P   26028.84175065 -.00000034  00000+0 -11668-3 0  9991
2 54126  87.9239 332.7120 0001342  80.3857 279.7427 13.19726772158453
ONEWEB-0509             
1 54127U 22138Q   26028.89228544 -.00000279  00000+0 -72914-3 0  9990
2 54127  87.9256 332.6768 0001622  76.9469 283.1845 13.19725812158436
ONEWEB-0510             
1 54128U 22138R   26028.81474921  .00000026  00000+0  31464-4 0  9999
2 54128  87.9226 302.2464 0002125  83.9742 276.1634 13.20771475160889
ONEWEB-0511             
1 54129U 22138S   26028.81332136  .00000001  00000+0 -28596-4 0  9997
2 54129  87.9256 332.6963 0001919  71.7481 288.3861 13.19727412158456
ONEWEB-0512             
1 54130U 22138T   26028.80543111  .00000114  00000+0  25224-3 0  9993
2 54130  87.9247 332.7163 0001620  68.7984 291.3322 13.19726532158429
ONEWEB-0513             
1 54131U 22138U   26028.86789409  .00000070  00000+0  14203-3 0  9998
2 54131  87.9256 332.6619 0001634  49.2018 310.9257 13.20259204158336
ONEWEB-0514             
1 54132U 22138V   26028.82121364 -.00000048  00000+0 -15247-3 0  9991
2 54132  87.9241 332.7021 0001823  83.4028 276.7313 13.19727108158445
ONEWEB-0515             
1 54133U 22138W   26028.72634998  .00000044  00000+0  75304-4 0  9998
2 54133  87.9224 302.2533 0002090 104.1830 255.9535 13.20774472160891
ONEWEB-0516             
1 54134U 22138X   26028.87177020  .00000052  00000+0  98761-4 0  9994
2 54134  87.9242 332.7055 0001670  81.0198 279.1123 13.19726970158450
ONEWEB-0517             
1 54135U 22138Y   26028.85122256  .00000113  00000+0  25082-3 0  9997
2 54135  87.9247 332.6960 0001970  72.5935 287.5413 13.19727950158451
ONEWEB-0518             
1 54136U 22138Z   26028.87017301 -.00000043  00000+0 -13913-3 0  9998
2 54136  87.9238 332.7077 0001628  76.9299 283.2016 13.19725953158456
ONEWEB-0519             
1 54137U 22138AA  26028.89546678  .00000038  00000+0  61455-4 0  9992
2 54137  87.9250 332.6779 0001890  73.6247 286.5094 13.19726252158463
ONEWEB-0520             
1 54138U 22138AB  26028.85439602  .00000046  00000+0  82340-4 0  9992
2 54138  87.9253 332.6922 0001472  75.3898 284.7398 13.19726967158442
ONEWEB-0521             
1 54139U 22138AC  26028.88756553  .00000012  00000+0 -24899-5 0  9993
2 54139  87.9255 332.6690 0001976  76.7306 283.4047 13.19726939158395
